LEMUR-2-ANDIS           
1 42838U 17042P   26068.55941107  .00023598  00000+0  79875-3 0  9998
2 42838  97.3659 249.7950 0009101   4.3248 355.8070 15.30557934473198
STARLINK-32583          
1 61955U 24209S   26068.55088019  .00013207  00000+0  45789-3 0  9999
2 61955  53.1558 143.1872 0001009  36.5308 323.5761 15.30153869 74892
